start=new Date('2022-07-14T00:00:00.000Z').valueOf();
sats=[{"GP_ID":"208065128","TLE_LINE1":"1 48129U 21027AP  22194.83419008 -.00001606  00000-0 -88951-4 0  9997","PERIOD":"95.592","DECAY_DATE":null,"CLASSIFICATION_TYPE":"U","TIME_SYSTEM":"UTC","ARG_OF_PERICENTER":"81.5114","SITE":"AFETR","OBJECT_NAME":"STARLINK-2471","ELEMENT_SET_NO":"999","LAUNCH_DATE":"2021-04-07","REF_FRAME":"TEME","APOAPSIS":"548.210","MEAN_ANOMALY":"278.6039","COUNTRY_CODE":"US","ECCENTRICITY":"0.00014450","PERIAPSIS":"546.209","NORAD_CAT_ID":"48129","FILE":"3513188","MEAN_MOTION_DOT":"-0.00001606","MEAN_ELEMENT_THEORY":"SGP4","TLE_LINE2":"2 48129  53.0574  44.0268 0001445  81.5114 278.6039 15.06401398 71222","REV_AT_EPOCH":"7122","OBJECT_ID":"2021-027AP","EPHEMERIS_TYPE":"0","BSTAR":"-0.00008895100000","SEMIMAJOR_AXIS":"6925.344","EPOCH":"2022-07-13T20:01:14.022912","OBJECT_TYPE":"PAYLOAD","RA_OF_ASC_NODE":"44.0268","MEAN_MOTION":"15.06401398","MEAN_MOTION_DDOT":"0.0000000000000","INCLINATION":"53.0574","CENTER_NAME":"EARTH","RCS_SIZE":"LARGE"},{"MEAN_MOTION_DOT":"-0.00002065","FILE":"3513188","NORAD_CAT_ID":"48130","REV_AT_EPOCH":"7115","OBJECT_ID":"2021-027AQ","EPHEMERIS_TYPE":"0","MEAN_ELEMENT_THEORY":"SGP4","TLE_LINE2":"2 48130  53.0556  49.0721 0001316  76.5663 283.5473 15.06398790 71153","EPOCH":"2022-07-13T19:45:56.550816","SEMIMAJOR_AXIS":"6925.352","BSTAR":"-0.00011979000000","OBJECT_TYPE":"PAYLOAD","MEAN_ANOMALY":"283.5473","PERIAPSIS":"546.306","ECCENTRICITY":"0.00013160","COUNTRY_CODE":"US","RCS_SIZE":"LARGE","CENTER_NAME":"EARTH","RA_OF_ASC_NODE":"49.0721","MEAN_MOTION_DDOT":"0.0000000000000","MEAN_MOTION":"15.06398790","INCLINATION":"53.0556","TIME_SYSTEM":"UTC","ARG_OF_PERICENTER":"76.5663","SITE":"AFETR","LAUNCH_DATE":"2021-04-07","ELEMENT_SET_NO":"999","OBJECT_NAME":"STARLINK-2472","GP_ID":"208065377","TLE_LINE1":"1 48130U 21027AQ  22194.82357119 -.00002065  00000-0 -11979-3 0  9997","DECAY_DATE":null,"PERIOD":"95.592","CLASSIFICATION_TYPE":"U","APOAPSIS":"548.129","REF_FRAME":"TEME"},{"APOAPSIS":"548.108","REF_FRAME":"TEME","LAUNCH_DATE":"2021-04-07","ELEMENT_SET_NO":"999","OBJECT_NAME":"STARLINK-2473","SITE":"AFETR","ARG_OF_PERICENTER":"79.6524","TIME_SYSTEM":"UTC","CLASSIFICATION_TYPE":"U","TLE_LINE1":"1 48131U 21027AR  22194.84340532 -.00003161  00000-0 -19342-3 0  9991","DECAY_DATE":null,"PERIOD":"95.592","GP_ID":"208066627","RCS_SIZE":"LARGE","CENTER_NAME":"EARTH","INCLINATION":"53.0543","MEAN_MOTION_DDOT":"0.0000000000000","MEAN_MOTION":"15.06402840","RA_OF_ASC_NODE":"23.9684","OBJECT_TYPE":"PAYLOAD","EPOCH":"2022-07-13T20:14:30.219648","SEMIMAJOR_AXIS":"6925.340","BSTAR":"-0.00019342000000","EPHEMERIS_TYPE":"0","REV_AT_EPOCH":"7150","OBJECT_ID":"2021-027AR","MEAN_ELEMENT_THEORY":"SGP4","TLE_LINE2":"2 48131  53.0543  23.9684 0001304  79.6524 280.4612 15.06402840 71508","MEAN_MOTION_DOT":"-0.00003161","FILE":"3513188","NORAD_CAT_ID":"48131","PERIAPSIS":"546.302","ECCENTRICITY":"0.00013040","COUNTRY_CODE":"US","MEAN_ANOMALY":"280.4612"},{"REF_FRAME":"TEME","APOAPSIS":"548.218","TLE_LINE1":"1 48132U 21027AS  22194.82314074 -.00002937  00000-0 -17834-3 0  9996","DECAY_DATE":null,"PERIOD":"95.592","CLASSIFICATION_TYPE":"U","GP_ID":"208066372","OBJECT_NAME":"STARLINK-2474","LAUNCH_DATE":"2021-04-07","ELEMENT_SET_NO":"999","ARG_OF_PERICENTER":"93.6592","TIME_SYSTEM":"UTC","SITE":"AFETR","MEAN_MOTION":"15.06403715","MEAN_MOTION_DDOT":"0.0000000000000","INCLINATION":"53.0562","RA_OF_ASC_NODE":"44.0811","CENTER_NAME":"EARTH","RCS_SIZE":"LARGE","COUNTRY_CODE":"US","ECCENTRICITY":"0.00014670","PERIAPSIS":"546.186","MEAN_ANOMALY":"266.4565","BSTAR":"-0.00017834000000","SEMIMAJOR_AXIS":"6925.337","EPOCH":"2022-07-13T19:45:19.359936","OBJECT_TYPE":"PAYLOAD","FILE":"3513188","MEAN_MOTION_DOT":"-0.00002937","NORAD_CAT_ID":"48132","MEAN_ELEMENT_THEORY":"SGP4","TLE_LINE2":"2 48132  53.0562  44.0811 0001467  93.6592 266.4565 15.06403715 71218","OBJECT_ID":"2021-027AS","REV_AT_EPOCH":"7121","EPHEMERIS_TYPE":"0"},{"RA_OF_ASC_NODE":"44.0976","MEAN_MOTION_DDOT":"0.0000000000000","MEAN_MOTION":"15.06406465","INCLINATION":"53.0550","CENTER_NAME":"EARTH","RCS_SIZE":"LARGE","MEAN_ANOMALY":"279.8995","PERIAPSIS":"546.202","COUNTRY_CODE":"US","ECCENTRICITY":"0.00014320","FILE":"3513188","MEAN_MOTION_DOT":"-0.00000931","NORAD_CAT_ID":"48133","OBJECT_ID":"2021-027AT","REV_AT_EPOCH":"7122","EPHEMERIS_TYPE":"0","TLE_LINE2":"2 48133  53.0550  44.0976 0001432  80.2155 279.8995 15.06406465 71228","MEAN_ELEMENT_THEORY":"SGP4","EPOCH":"2022-07-13T19:40:00.248448","SEMIMAJOR_AXIS":"6925.329","BSTAR":"-0.00004358500000","OBJECT_TYPE":"PAYLOAD","REF_FRAME":"TEME","APOAPSIS":"548.185","GP_ID":"208065626","PERIOD":"95.592","TLE_LINE1":"1 48133U 21027AT  22194.81944732 -.00000931  00000-0 -43585-4 0  9991","DECAY_DATE":null,"CLASSIFICATION_TYPE":"U","ARG_OF_PERICENTER":"80.2155","TIME_SYSTEM":"UTC","SITE":"AFETR","LAUNCH_DATE":"2021-04-07","ELEMENT_SET_NO":"999","OBJECT_NAME":"STARLINK-2475"},{"RA_OF_ASC_NODE":"44.1573","MEAN_MOTION":"15.06406191","MEAN_MOTION_DDOT":"0.0000000000000","INCLINATION":"53.0561","RCS_SIZE":"LARGE","CENTER_NAME":"EARTH","MEAN_ANOMALY":"271.7316","ECCENTRICITY":"0.00012870","COUNTRY_CODE":"US","PERIAPSIS":"546.303","FILE":"3513188","NORAD_CAT_ID":"48134","MEAN_MOTION_DOT":"-0.00000602","TLE_LINE2":"2 48134  53.0561  44.1573 0001287  88.3821 271.7316 15.06406191 71215","MEAN_ELEMENT_THEORY":"SGP4","OBJECT_ID":"2021-027AU","REV_AT_EPOCH":"7121","EPHEMERIS_TYPE":"0","BSTAR":"-0.00002151100000","SEMIMAJOR_AXIS":"6925.330","EPOCH":"2022-07-13T19:18:46.856736","OBJECT_TYPE":"PAYLOAD","REF_FRAME":"TEME","APOAPSIS":"548.086","GP_ID":"208065875","TLE_LINE1":"1 48134U 21027AU  22194.80470899 -.00000602  00000-0 -21511-4 0  9999","DECAY_DATE":null,"PERIOD":"95.592","CLASSIFICATION_TYPE":"U","ARG_OF_PERICENTER":"88.3821","TIME_SYSTEM":"UTC","SITE":"AFETR","OBJECT_NAME":"STARLINK-2476","LAUNCH_DATE":"2021-04-07","ELEMENT_SET_NO":"999"},{"APOAPSIS":"548.104","REF_FRAME":"TEME","ARG_OF_PERICENTER":"99.5991","TIME_SYSTEM":"UTC","SITE":"AFETR","OBJECT_NAME":"STARLINK-2478","ELEMENT_SET_NO":"999","LAUNCH_DATE":"2021-04-07","GP_ID":"208066129","TLE_LINE1":"1 48135U 21027AV  22194.80611041  .00002909  00000-0  21403-3 0  9995","DECAY_DATE":null,"PERIOD":"95.591","CLASSIFICATION_TYPE":"U","CENTER_NAME":"EARTH","RCS_SIZE":"LARGE","RA_OF_ASC_NODE":"49.3072","MEAN_MOTION":"15.06412456","MEAN_MOTION_DDOT":"0.0000000000000","INCLINATION":"53.0541","MEAN_MOTION_DOT":"0.00002909","FILE":"3513188","NORAD_CAT_ID":"48135","TLE_LINE2":"2 48135  53.0541  49.3072 0001341  99.5991 260.5150 15.06412456 71143","MEAN_ELEMENT_THEORY":"SGP4","EPHEMERIS_TYPE":"0","REV_AT_EPOCH":"7114","OBJECT_ID":"2021-027AV","BSTAR":"0.00021403000000","SEMIMAJOR_AXIS":"6925.310","EPOCH":"2022-07-13T19:20:47.939424","OBJECT_TYPE":"PAYLOAD","MEAN_ANOMALY":"260.5150","COUNTRY_CODE":"US","ECCENTRICITY":"0.00013410","PERIAPSIS":"546.247"},{"RCS_SIZE":"LARGE","CENTER_NAME":"EARTH","RA_OF_ASC_NODE":"44.0279","INCLINATION":"53.0544","MEAN_MOTION_DDOT":"0.0000000000000","MEAN_MOTION":"15.06402998","REV_AT_EPOCH":"7122","EPHEMERIS_TYPE":"0","OBJECT_ID":"2021-027AW","TLE_LINE2":"2 48136  53.0544  44.0279 0001308  75.7905 284.3229 15.06402998 71222","MEAN_ELEMENT_THEORY":"SGP4","MEAN_MOTION_DOT":"-0.00000253","FILE":"3513188","NORAD_CAT_ID":"48136","OBJECT_TYPE":"PAYLOAD","EPOCH":"2022-07-13T19:54:33.913152","SEMIMAJOR_AXIS":"6925.339","BSTAR":"0.00000187780000","MEAN_ANOMALY":"284.3229","PERIAPSIS":"546.299","ECCENTRICITY":"0.00013080","COUNTRY_CODE":"US","APOAPSIS":"548.110","REF_FRAME":"TEME","SITE":"AFETR","ARG_OF_PERICENTER":"75.7905","TIME_SYSTEM":"UTC","LAUNCH_DATE":"2021-04-07","ELEMENT_SET_NO":"999","OBJECT_NAME":"STARLINK-2479","GP_ID":"208066871","CLASSIFICATION_TYPE":"U","TLE_LINE1":"1 48136U 21027AW  22194.82955918 -.00000253  00000-0  18778-5 0  9996","PERIOD":"95.592","DECAY_DATE":null},{"RA_OF_ASC_NODE":"24.2036","MEAN_MOTION_DDOT":"0.0000000000000","MEAN_MOTION":"15.06408531","INCLINATION":"53.0549","RCS_SIZE":"LARGE","CENTER_NAME":"EARTH","MEAN_ANOMALY":"280.0022","PERIAPSIS":"546.069","ECCENTRICITY":"0.00016150","COUNTRY_CODE":"US","NORAD_CAT_ID":"48137","FILE":"3513188","MEAN_MOTION_DOT":"0.00003583","REV_AT_EPOCH":"7149","OBJECT_ID":"2021-027AX","EPHEMERIS_TYPE":"0","TLE_LINE2":"2 48137  53.0549  24.2036 0001615  80.1149 280.0022 15.06408531 71492","MEAN_ELEMENT_THEORY":"SGP4","SEMIMAJOR_AXIS":"6925.322","EPOCH":"2022-07-13T18:54:52.691904","BSTAR":"0.00025923000000","OBJECT_TYPE":"PAYLOAD","REF_FRAME":"TEME","APOAPSIS":"548.306","GP_ID":"208065129","TLE_LINE1":"1 48137U 21027AX  22194.78810986  .00003583  00000-0  25923-3 0  9993","DECAY_DATE":null,"PERIOD":"95.592","CLASSIFICATION_TYPE":"U","TIME_SYSTEM":"UTC","ARG_OF_PERICENTER":"80.1149","SITE":"AFETR","LAUNCH_DATE":"2021-04-07","ELEMENT_SET_NO":"999","OBJECT_NAME":"STARLINK-2480"},{"OBJECT_TYPE":"PAYLOAD","BSTAR":"-0.00021941000000","SEMIMAJOR_AXIS":"6925.337","EPOCH":"2022-07-13T19:34:41.745216","MEAN_ELEMENT_THEORY":"SGP4","TLE_LINE2":"2 48138  53.0546  44.1174 0001230  75.6714 284.4411 15.06403902 71222","EPHEMERIS_TYPE":"0","REV_AT_EPOCH":"7122","OBJECT_ID":"2021-027AY","MEAN_MOTION_DOT":"-0.00003548","FILE":"3513188","NORAD_CAT_ID":"48138","ECCENTRICITY":"0.00012300","COUNTRY_CODE":"US","PERIAPSIS":"546.350","MEAN_ANOMALY":"284.4411","CENTER_NAME":"EARTH","RCS_SIZE":"LARGE","INCLINATION":"53.0546","MEAN_MOTION":"15.06403902","MEAN_MOTION_DDOT":"0.0000000000000","RA_OF_ASC_NODE":"44.1174","OBJECT_NAME":"STARLINK-2481","ELEMENT_SET_NO":"999","LAUNCH_DATE":"2021-04-07","SITE":"AFETR","TIME_SYSTEM":"UTC","ARG_OF_PERICENTER":"75.6714","CLASSIFICATION_TYPE":"U","TLE_LINE1":"1 48138U 21027AY  22194.81576094 -.00003548  00000-0 -21941-3 0  9996","DECAY_DATE":null,"PERIOD":"95.592","GP_ID":"208065378","APOAPSIS":"548.053","REF_FRAME":"TEME"}];
